COMMENT,ORIGINATOR,NORAD_CAT_ID,OBJECT_NAME,OBJECT_TYPE,CLASSIFICATION_TYPE,INTLDES,EPOCH,EPOCH_MICROSECONDS,MEAN_MOTION,ECCENTRICITY,INCLINATION,RA_OF_ASC_NODE,ARG_OF_PERICENTER,MEAN_ANOMALY,EPHEMERIS_TYPE,ELEMENT_SET_NO,REV_AT_EPOCH,BSTAR,MEAN_MOTION_DOT,MEAN_MOTION_DDOT,FILE,TLE_LINE0,TLE_LINE1,TLE_LINE2,OBJECT_ID,OBJECT_NUMBER,SEMIMAJOR_AXIS,PERIOD,APOGEE,PERIGEE,DECAYED,date
GENERATED VIA SPACETRACK.ORG API,18 SPCS,52181,SPACEBEE-131,PAYLOAD,U,22033AA,2023/4/5 5:20,728704,15.39056703,0.0005869,97.3516,178.4176,82.0604,278.1308,0,999,5623,0.0015936,0.00062019,0,3880853,0 SPACEBEE-131,1 52181U 22033AA  23095.22249686  .00062019  00000-0  15936-2 0  9999,2 52181  97.3516 178.4176 0005869  82.0604 278.1308 15.39056703 56236,2022-033AA,52181,6827.034,93.564,452.906,444.893,1,
GENERATED VIA SPACETRACK.ORG API,18 SPCS,52181,SPACEBEE-131,PAYLOAD,U,22033AA,2023/4/5 17:49,827648,15.39112999,0.000594,97.3515,178.9401,80.592,279.5997,0,999,5631,0.0015302,0.00059641,0,3881153,0 SPACEBEE-131,1 52181U 22033AA  23095.74262532  .00059641  00000-0  15302-2 0  9995,2 52181  97.3515 178.9401 0005940  80.5920 279.5997 15.39112999 56313,2022-033AA,52181,6826.868,93.56,452.788,444.678,1,
GENERATED VIA SPACETRACK.ORG API,18 SPCS,52181,SPACEBEE-131,PAYLOAD,U,22033AA,2023/4/6 10:59,887360,15.3920052,0.000572,97.351,179.6572,77.251,282.9374,0,999,5640,0.0015232,0.00059534,0,3881662,0 SPACEBEE-131,1 52181U 22033AA  23096.45776490  .00059534  00000-0  15232-2 0  9990,2 52181  97.3510 179.6572 0005720  77.2510 282.9374 15.39200520 56404,2022-033AA,52181,6826.609,93.555,452.379,444.569,1,
GENERATED VIA SPACETRACK.ORG API,18 SPCS,52181,SPACEBEE-131,PAYLOAD,U,22033AA,2023/4/6 10:59,887360,15.3920052,0.000572,97.351,179.6572,77.251,282.9374,0,999,5642,0.0015232,0.00059534,0,3881771,0 SPACEBEE-131,1 52181U 22033AA  23096.45776490  .00059534  00000-0  15232-2 0  9990,2 52181  97.3510 179.6572 0005720  77.2510 282.9374 15.39200520 56426,2022-033AA,52181,6826.609,93.555,452.379,444.569,1,
GENERATED VIA SPACETRACK.ORG API,18 SPCS,52181,SPACEBEE-131,PAYLOAD,U,22033AA,2023/4/7 4:08,666464,15.39290164,0.0005608,97.3509,180.3744,73.2318,286.9542,0,999,5653,0.0015578,0.00061078,0,3882626,0 SPACEBEE-131,1 52181U 22033AA  23097.17286651  .00061078  00000-0  15578-2 0  9994,2 52181  97.3509 180.3744 0005608  73.2318 286.9542 15.39290164 56537,2022-033AA,52181,6826.344,93.55,452.037,444.381,1,
GENERATED VIA SPACETRACK.ORG API,18 SPCS,52181,SPACEBEE-131,PAYLOAD,U,22033AA,2023/4/7 16:37,902656,15.39349008,0.0005602,97.3506,180.8967,71.2886,288.8967,0,999,5659,0.0016061,0.00063112,0,3882841,0 SPACEBEE-131,1 52181U 22033AA  23097.69291554  .00063112  00000-0  16061-2 0  9998,2 52181  97.3506 180.8967 0005602  71.2886 288.8967 15.39349008 56598,2022-033AA,52181,6826.17,93.546,451.859,444.211,1,
GENERATED VIA SPACETRACK.ORG API,18 SPCS,52181,SPACEBEE-131,PAYLOAD,U,22033AA,2023/4/8 5:06,358144,15.39407812,0.0005486,97.3505,181.418,70.2902,289.8935,0,999,5669,0.0013669,0.00053737,0,3883527,0 SPACEBEE-131,1 52181U 22033AA  23098.21294396  .00053737  00000-0  13669-2 0  9997,2 52181  97.3505 181.4180 0005486  70.2902 289.8935 15.39407812 56694,2022-033AA,52181,6825.996,93.542,451.606,444.117,1,
GENERATED VIA SPACETRACK.ORG API,18 SPCS,52181,SPACEBEE-131,PAYLOAD,U,22033AA,2023/4/8 19:09,146112,15.39470114,0.0005385,97.3501,182.0056,67.3515,292.8299,0,999,5676,0.0013015,0.00051249,0,3883774,0 SPACEBEE-131,1 52181U 22033AA  23098.79795308  .00051249  00000-0  13015-2 0  9990,2 52181  97.3501 182.0056 0005385  67.3515 292.8299 15.39470114 56764,2022-033AA,52181,6825.812,93.539,451.353,444.001,1,
GENERATED VIA SPACETRACK.ORG API,18 SPCS,52181,SPACEBEE-131,PAYLOAD,U,22033AA,2023/4/9 4:30,551680,15.39512763,0.0005322,97.3501,182.3967,66.4564,293.724,0,999,5684,0.0013938,0.00054992,0,3884332,0 SPACEBEE-131,1 52181U 22033AA  23099.18794620  .00054992  00000-0  13938-2 0  9992,2 52181  97.3501 182.3967 0005322  66.4564 293.7240 15.39512763 56845,2022-033AA,52181,6825.686,93.536,451.184,443.918,1,
GENERATED VIA SPACETRACK.ORG API,18 SPCS,52181,SPACEBEE-131,PAYLOAD,U,22033AA,2023/4/9 18:32,889696,15.39575861,0.0005322,97.3498,182.9844,64.1566,296.0228,0,999,5693,0.0013344,0.00052738,0,3884641,0 SPACEBEE-131,1 52181U 22033AA  23099.77291539  .00052738  00000-0  13344-2 0  9995,2 52181  97.3498 182.9844 0005322  64.1566 296.0228 15.39575861 56937,2022-033AA,52181,6825.5,93.532,450.997,443.732,1,
GENERATED VIA SPACETRACK.ORG API,18 SPCS,52181,SPACEBEE-131,PAYLOAD,U,22033AA,2023/4/10 5:28,268672,15.39632475,0.0005275,97.3497,183.441,63.5039,296.6747,0,999,5698,0.0014056,0.0005568,0,3884953,0 SPACEBEE-131,1 52181U 22033AA  23100.22787348  .00055680  00000-0  14056-2 0  9996,2 52181  97.3497 183.4410 0005275  63.5039 296.6747 15.39632475 56988,2022-033AA,52181,6825.332,93.529,450.798,443.597,1,
GENERATED VIA SPACETRACK.ORG API,18 SPCS,52181,SPACEBEE-131,PAYLOAD,U,22033AA,2023/4/10 5:28,268672,15.39632475,0.0005275,97.3497,183.441,63.5039,296.6747,0,999,5700,0.0014056,0.0005568,0,3885195,0 SPACEBEE-131,1 52181U 22033AA  23100.22787348  .00055680  00000-0  14056-2 0  9996,2 52181  97.3497 183.4410 0005275  63.5039 296.6747 15.39632475 57002,2022-033AA,52181,6825.332,93.529,450.798,443.597,1,
GENERATED VIA SPACETRACK.ORG API,18 SPCS,52181,SPACEBEE-131,PAYLOAD,U,22033AA,2023/4/11 4:51,583424,15.39756253,0.000517,97.3494,184.42,60.1486,300.0273,0,999,5713,0.0013143,0.00052246,0,3885570,0 SPACEBEE-131,1 52181U 22033AA  23101.20272666  .00052246  00000-0  13143-2 0  9998,2 52181  97.3494 184.4200 0005170  60.1486 300.0273 15.39756253 57139,2022-033AA,52181,6824.966,93.521,450.36,443.303,1,
GENERATED VIA SPACETRACK.ORG API,18 SPCS,52181,SPACEBEE-131,PAYLOAD,U,22033AA,2023/4/11 4:51,583424,15.39756253,0.000517,97.3494,184.42,60.1486,300.0273,0,999,5715,0.0013143,0.00052246,0,3885783,0 SPACEBEE-131,1 52181U 22033AA  23101.20272666  .00052246  00000-0  13143-2 0  9998,2 52181  97.3494 184.4200 0005170  60.1486 300.0273 15.39756253 57151,2022-033AA,52181,6824.966,93.521,450.36,443.303,1,
GENERATED VIA SPACETRACK.ORG API,18 SPCS,52181,SPACEBEE-131,PAYLOAD,U,22033AA,2023/4/11 15:46,452320,15.39808712,0.000516,97.3492,184.8773,57.1436,303.0306,0,999,5722,0.0015082,0.0006013,0,3885919,0 SPACEBEE-131,1 52181U 22033AA  23101.65763255  .00060130  00000-0  15082-2 0  9991,2 52181  97.3492 184.8773 0005160  57.1436 303.0306 15.39808712 57224,2022-033AA,52181,6824.811,93.518,450.198,443.155,1,
GENERATED VIA SPACETRACK.ORG API,18 SPCS,52181,SPACEBEE-131,PAYLOAD,U,22033AA,2023/4/12 4:15,327456,15.3987433,0.0005049,97.3494,185.399,55.9139,304.2586,0,999,5728,0.0013108,0.00052308,0,3886349,0 SPACEBEE-131,1 52181U 22033AA  23102.17750379  .00052308  00000-0  13108-2 0  9997,2 52181  97.3494 185.3990 0005049  55.9139 304.2586 15.39874330 57283,2022-033AA,52181,6824.618,93.514,449.928,443.037,1,
GENERATED VIA SPACETRACK.ORG API,18 SPCS,52181,SPACEBEE-131,PAYLOAD,U,22033AA,2023/4/13 5:12,764128,15.40001408,0.0004963,97.3494,186.4434,51.4108,308.7582,0,999,5746,0.0014542,0.00058326,0,3886564,0 SPACEBEE-131,1 52181U 22033AA  23103.21718477  .00058326  00000-0  14542-2 0  9995,2 52181  97.3494 186.4434 0004963  51.4108 308.7582 15.40001408 57464,2022-033AA,52181,6824.242,93.506,449.494,442.72,1,
GENERATED VIA SPACETRACK.ORG API,18 SPCS,52181,SPACEBEE-131,PAYLOAD,U,22033AA,2023/4/13 19:14,946208,15.40071426,0.0004939,97.3491,187.031,47.5789,312.5874,0,999,5753,0.001467,0.0005898,0,3886951,0 SPACEBEE-131,1 52181U 22033AA  23103.80196697  .00058980  00000-0  14670-2 0  9992,2 52181  97.3491 187.0310 0004939  47.5789 312.5874 15.40071426 57537,2022-033AA,52181,6824.035,93.502,449.271,442.53,1,
GENERATED VIA SPACETRACK.ORG API,18 SPCS,52181,SPACEBEE-131,PAYLOAD,U,22033AA,2023/4/14 4:36,21984,15.40127485,0.0004854,97.3495,187.4223,46.2798,313.8849,0,999,5761,0.0016705,0.0006737,0,3887333,0 SPACEBEE-131,1 52181U 22033AA  23104.19180581  .00067370  00000-0  16705-2 0  9994,2 52181  97.3495 187.4223 0004854  46.2798 313.8849 15.40127485 57612,2022-033AA,52181,6823.87,93.499,449.047,442.422,1,
GENERATED VIA SPACETRACK.ORG API,18 SPCS,52181,SPACEBEE-131,PAYLOAD,U,22033AA,2023/4/15 7:06,50272,15.40288627,0.0004824,97.3498,188.5323,41.7584,318.403,0,999,5776,0.0017204,0.00069774,0,3887949,0 SPACEBEE-131,1 52181U 22033AA  23105.29627373  .00069774  00000-0  17204-2 0  9996,2 52181  97.3498 188.5323 0004824  41.7584 318.4030 15.40288627 57763,2022-033AA,52181,6823.394,93.489,448.55,441.967,1,
GENERATED VIA SPACETRACK.ORG API,18 SPCS,52181,SPACEBEE-131,PAYLOAD,U,22033AA,2023/4/15 7:06,50272,15.40288627,0.0004824,97.3498,188.5323,41.7584,318.403,0,999,5778,0.0017204,0.00069774,0,3887974,0 SPACEBEE-131,1 52181U 22033AA  23105.29627373  .00069774  00000-0  17204-2 0  9996,2 52181  97.3498 188.5323 0004824  41.7584 318.4030 15.40288627 57785,2022-033AA,52181,6823.394,93.489,448.55,441.967,1,
GENERATED VIA SPACETRACK.ORG API,18 SPCS,52181,SPACEBEE-131,PAYLOAD,U,22033AA,2023/4/15 19:35,875040,15.40367983,0.000481,97.3494,189.0545,38.4654,321.6935,0,999,5786,0.0019065,0.00077611,0,3888171,0 SPACEBEE-131,1 52181U 22033AA  23105.81598235  .00077611  00000-0  19065-2 0  9994,2 52181  97.3494 189.0545 0004810  38.4654 321.6935 15.40367983 57861,2022-033AA,52181,6823.159,93.484,448.306,441.742,1,
GENERATED VIA SPACETRACK.ORG API,18 SPCS,52181,SPACEBEE-131,PAYLOAD,U,22033AA,2023/4/16 4:56,388736,15.40430928,0.0004695,97.3497,189.4462,37.422,322.7353,0,999,5790,0.001777,0.00072434,0,3888374,0 SPACEBEE-131,1 52181U 22033AA  23106.20574524  .00072434  00000-0  17770-2 0  9992,2 52181  97.3497 189.4462 0004695  37.4220 322.7353 15.40430928 57906,2022-033AA,52181,6822.974,93.48,448.042,441.635,1,
